<?xml version="1.0" encoding="UTF-8"?>
<ndm xmlns:xsi="http://www.w3.org/2001/XMLSchema-instance" xsi:noNamespaceSchemaLocation="https://sanaregistry.org/r/ndmxml_unqualified/ndmxml-2.0.0-master-2.0.xsd">
<omm id="CCSDS_OMM_VERS" version="2.0">
<header><CREATION_DATE/><ORIGINATOR/></header><body><segment><metadata><OBJECT_NAME>ORBCOMM FM20</OBJECT_NAME><OBJECT_ID>1998-046D</OBJECT_ID><CENTER_NAME>EARTH</CENTER_NAME><REF_FRAME>TEME</REF_FRAME><TIME_SYSTEM>UTC</TIME_SYSTEM><MEAN_ELEMENT_THEORY>SGP4</MEAN_ELEMENT_THEORY></metadata><data><meanElements><EPOCH>2024-12-08T12:59:52.003104</EPOCH><MEAN_MOTION>14.36419048</MEAN_MOTION><ECCENTRICITY>.0002113</ECCENTRICITY><INCLINATION>44.9952</INCLINATION><RA_OF_ASC_NODE>3.6224</RA_OF_ASC_NODE><ARG_OF_PERICENTER>290.9451</ARG_OF_PERICENTER><MEAN_ANOMALY>69.1170</MEAN_ANOMALY></meanElements><tleParameters><EPHEMERIS_TYPE>0</EPHEMERIS_TYPE><CLASSIFICATION_TYPE>U</CLASSIFICATION_TYPE><NORAD_CAT_ID>25416</NORAD_CAT_ID><ELEMENT_SET_NO>999</ELEMENT_SET_NO><REV_AT_EPOCH>37684</REV_AT_EPOCH><BSTAR>.8525E-3</BSTAR><MEAN_MOTION_DOT>.238E-4</MEAN_MOTION_DOT><MEAN_MOTION_DDOT>0</MEAN_MOTION_DDOT></tleParameters></data></segment></body></omm>
<omm id="CCSDS_OMM_VERS" version="2.0">
<header><CREATION_DATE/><ORIGINATOR/></header><body><segment><metadata><OBJECT_NAME>ORBCOMM FM16</OBJECT_NAME><OBJECT_ID>1998-046E</OBJECT_ID><CENTER_NAME>EARTH</CENTER_NAME><REF_FRAME>TEME</REF_FRAME><TIME_SYSTEM>UTC</TIME_SYSTEM><MEAN_ELEMENT_THEORY>SGP4</MEAN_ELEMENT_THEORY></metadata><data><meanElements><EPOCH>2024-12-08T12:53:05.894592</EPOCH><MEAN_MOTION>14.37812937</MEAN_MOTION><ECCENTRICITY>.0003175</ECCENTRICITY><INCLINATION>44.9947</INCLINATION><RA_OF_ASC_NODE>357.5160</RA_OF_ASC_NODE><ARG_OF_PERICENTER>20.7342</ARG_OF_PERICENTER><MEAN_ANOMALY>339.3634</MEAN_ANOMALY></meanElements><tleParameters><EPHEMERIS_TYPE>0</EPHEMERIS_TYPE><CLASSIFICATION_TYPE>U</CLASSIFICATION_TYPE><NORAD_CAT_ID>25417</NORAD_CAT_ID><ELEMENT_SET_NO>999</ELEMENT_SET_NO><REV_AT_EPOCH>37680</REV_AT_EPOCH><BSTAR>.10892E-2</BSTAR><MEAN_MOTION_DOT>.3172E-4</MEAN_MOTION_DOT><MEAN_MOTION_DDOT>0</MEAN_MOTION_DDOT></tleParameters></data></segment></body></omm>
<omm id="CCSDS_OMM_VERS" version="2.0">
<header><CREATION_DATE/><ORIGINATOR/></header><body><segment><metadata><OBJECT_NAME>ORBCOMM FM15</OBJECT_NAME><OBJECT_ID>1998-046F</OBJECT_ID><CENTER_NAME>EARTH</CENTER_NAME><REF_FRAME>TEME</REF_FRAME><TIME_SYSTEM>UTC</TIME_SYSTEM><MEAN_ELEMENT_THEORY>SGP4</MEAN_ELEMENT_THEORY></metadata><data><meanElements><EPOCH>2024-12-08T12:54:37.097568</EPOCH><MEAN_MOTION>14.37492885</MEAN_MOTION><ECCENTRICITY>.0002694</ECCENTRICITY><INCLINATION>44.9978</INCLINATION><RA_OF_ASC_NODE>2.1145</RA_OF_ASC_NODE><ARG_OF_PERICENTER>17.9989</ARG_OF_PERICENTER><MEAN_ANOMALY>342.0954</MEAN_ANOMALY></meanElements><tleParameters><EPHEMERIS_TYPE>0</EPHEMERIS_TYPE><CLASSIFICATION_TYPE>U</CLASSIFICATION_TYPE><NORAD_CAT_ID>25418</NORAD_CAT_ID><ELEMENT_SET_NO>999</ELEMENT_SET_NO><REV_AT_EPOCH>37680</REV_AT_EPOCH><BSTAR>.11137E-2</BSTAR><MEAN_MOTION_DOT>.3224E-4</MEAN_MOTION_DOT><MEAN_MOTION_DDOT>0</MEAN_MOTION_DDOT></tleParameters></data></segment></body></omm>
<omm id="CCSDS_OMM_VERS" version="2.0">
<header><CREATION_DATE/><ORIGINATOR/></header><body><segment><metadata><OBJECT_NAME>ORBCOMM FM14</OBJECT_NAME><OBJECT_ID>1998-046G</OBJECT_ID><CENTER_NAME>EARTH</CENTER_NAME><REF_FRAME>TEME</REF_FRAME><TIME_SYSTEM>UTC</TIME_SYSTEM><MEAN_ELEMENT_THEORY>SGP4</MEAN_ELEMENT_THEORY></metadata><data><meanElements><EPOCH>2024-12-08T11:02:38.443488</EPOCH><MEAN_MOTION>14.37777576</MEAN_MOTION><ECCENTRICITY>.0002411</ECCENTRICITY><INCLINATION>44.9966</INCLINATION><RA_OF_ASC_NODE>1.2172</RA_OF_ASC_NODE><ARG_OF_PERICENTER>350.4685</ARG_OF_PERICENTER><MEAN_ANOMALY>9.6117</MEAN_ANOMALY></meanElements><tleParameters><EPHEMERIS_TYPE>0</EPHEMERIS_TYPE><CLASSIFICATION_TYPE>U</CLASSIFICATION_TYPE><NORAD_CAT_ID>25419</NORAD_CAT_ID><ELEMENT_SET_NO>999</ELEMENT_SET_NO><REV_AT_EPOCH>37675</REV_AT_EPOCH><BSTAR>.11025E-2</BSTAR><MEAN_MOTION_DOT>.321E-4</MEAN_MOTION_DOT><MEAN_MOTION_DDOT>0</MEAN_MOTION_DDOT></tleParameters></data></segment></body></omm>
<omm id="CCSDS_OMM_VERS" version="2.0">
<header><CREATION_DATE/><ORIGINATOR/></header><body><segment><metadata><OBJECT_NAME>ORBCOMM FM13</OBJECT_NAME><OBJECT_ID>1998-046H</OBJECT_ID><CENTER_NAME>EARTH</CENTER_NAME><REF_FRAME>TEME</REF_FRAME><TIME_SYSTEM>UTC</TIME_SYSTEM><MEAN_ELEMENT_THEORY>SGP4</MEAN_ELEMENT_THEORY></metadata><data><meanElements><EPOCH>2024-12-08T11:47:47.639904</EPOCH><MEAN_MOTION>14.36757791</MEAN_MOTION><ECCENTRICITY>.0004137</ECCENTRICITY><INCLINATION>44.9984</INCLINATION><RA_OF_ASC_NODE>7.3389</RA_OF_ASC_NODE><ARG_OF_PERICENTER>9.3324</ARG_OF_PERICENTER><MEAN_ANOMALY>350.7599</MEAN_ANOMALY></meanElements><tleParameters><EPHEMERIS_TYPE>0</EPHEMERIS_TYPE><CLASSIFICATION_TYPE>U</CLASSIFICATION_TYPE><NORAD_CAT_ID>25420</NORAD_CAT_ID><ELEMENT_SET_NO>999</ELEMENT_SET_NO><REV_AT_EPOCH>37580</REV_AT_EPOCH><BSTAR>.99295E-3</BSTAR><MEAN_MOTION_DOT>.2815E-4</MEAN_MOTION_DOT><MEAN_MOTION_DDOT>0</MEAN_MOTION_DDOT></tleParameters></data></segment></body></omm>
<omm id="CCSDS_OMM_VERS" version="2.0">
<header><CREATION_DATE/><ORIGINATOR/></header><body><segment><metadata><OBJECT_NAME>ORBCOMM FM21</OBJECT_NAME><OBJECT_ID>1998-053A</OBJECT_ID><CENTER_NAME>EARTH</CENTER_NAME><REF_FRAME>TEME</REF_FRAME><TIME_SYSTEM>UTC</TIME_SYSTEM><MEAN_ELEMENT_THEORY>SGP4</MEAN_ELEMENT_THEORY></metadata><data><meanElements><EPOCH>2024-12-08T14:25:11.176320</EPOCH><MEAN_MOTION>14.36555033</MEAN_MOTION><ECCENTRICITY>.0001578</ECCENTRICITY><INCLINATION>45.0078</INCLINATION><RA_OF_ASC_NODE>91.5433</RA_OF_ASC_NODE><ARG_OF_PERICENTER>257.1361</ARG_OF_PERICENTER><MEAN_ANOMALY>102.9311</MEAN_ANOMALY></meanElements><tleParameters><EPHEMERIS_TYPE>0</EPHEMERIS_TYPE><CLASSIFICATION_TYPE>U</CLASSIFICATION_TYPE><NORAD_CAT_ID>25475</NORAD_CAT_ID><ELEMENT_SET_NO>999</ELEMENT_SET_NO><REV_AT_EPOCH>36983</REV_AT_EPOCH><BSTAR>.91285E-3</BSTAR><MEAN_MOTION_DOT>.2566E-4</MEAN_MOTION_DOT><MEAN_MOTION_DDOT>0</MEAN_MOTION_DDOT></tleParameters></data></segment></body></omm>
<omm id="CCSDS_OMM_VERS" version="2.0">
<header><CREATION_DATE/><ORIGINATOR/></header><body><segment><metadata><OBJECT_NAME>ORBCOMM FM22</OBJECT_NAME><OBJECT_ID>1998-053B</OBJECT_ID><CENTER_NAME>EARTH</CENTER_NAME><REF_FRAME>TEME</REF_FRAME><TIME_SYSTEM>UTC</TIME_SYSTEM><MEAN_ELEMENT_THEORY>SGP4</MEAN_ELEMENT_THEORY></metadata><data><meanElements><EPOCH>2024-12-08T19:57:06.853248</EPOCH><MEAN_MOTION>14.37362543</MEAN_MOTION><ECCENTRICITY>.0002705</ECCENTRICITY><INCLINATION>45.0071</INCLINATION><RA_OF_ASC_NODE>86.6844</RA_OF_ASC_NODE><ARG_OF_PERICENTER>299.4620</ARG_OF_PERICENTER><MEAN_ANOMALY>60.5958</MEAN_ANOMALY></meanElements><tleParameters><EPHEMERIS_TYPE>0</EPHEMERIS_TYPE><CLASSIFICATION_TYPE>U</CLASSIFICATION_TYPE><NORAD_CAT_ID>25476</NORAD_CAT_ID><ELEMENT_SET_NO>999</ELEMENT_SET_NO><REV_AT_EPOCH>37023</REV_AT_EPOCH><BSTAR>.12311E-2</BSTAR><MEAN_MOTION_DOT>.357E-4</MEAN_MOTION_DOT><MEAN_MOTION_DDOT>0</MEAN_MOTION_DDOT></tleParameters></data></segment></body></omm>
<omm id="CCSDS_OMM_VERS" version="2.0">
<header><CREATION_DATE/><ORIGINATOR/></header><body><segment><metadata><OBJECT_NAME>ORBCOMM FM23</OBJECT_NAME><OBJECT_ID>1998-053C</OBJECT_ID><CENTER_NAME>EARTH</CENTER_NAME><REF_FRAME>TEME</REF_FRAME><TIME_SYSTEM>UTC</TIME_SYSTEM><MEAN_ELEMENT_THEORY>SGP4</MEAN_ELEMENT_THEORY></metadata><data><meanElements><EPOCH>2024-12-08T14:53:46.390848</EPOCH><MEAN_MOTION>14.36654967</MEAN_MOTION><ECCENTRICITY>.0002063</ECCENTRICITY><INCLINATION>45.0075</INCLINATION><RA_OF_ASC_NODE>93.7841</RA_OF_ASC_NODE><ARG_OF_PERICENTER>284.3787</ARG_OF_PERICENTER><MEAN_ANOMALY>75.6832</MEAN_ANOMALY></meanElements><tleParameters><EPHEMERIS_TYPE>0</EPHEMERIS_TYPE><CLASSIFICATION_TYPE>U</CLASSIFICATION_TYPE><NORAD_CAT_ID>25477</NORAD_CAT_ID><ELEMENT_SET_NO>999</ELEMENT_SET_NO><REV_AT_EPOCH>36998</REV_AT_EPOCH><BSTAR>.11195E-2</BSTAR><MEAN_MOTION_DOT>.3185E-4</MEAN_MOTION_DOT><MEAN_MOTION_DDOT>0</MEAN_MOTION_DDOT></tleParameters></data></segment></body></omm>

</ndm>
