ORBCOMM FM20            
1 25416U 98046D   24343.54157411  .00002380  00000+0  85250-3 0  9994
2 25416  44.9952   3.6224 0002113 290.9451  69.1170 14.36419048376849
ORBCOMM FM16            
1 25417U 98046E   24343.53687378  .00003172  00000+0  10892-2 0  9993
2 25417  44.9947 357.5160 0003175  20.7342 339.3634 14.37812937376809
ORBCOMM FM15            
1 25418U 98046F   24343.53792937  .00003224  00000+0  11137-2 0  9993
2 25418  44.9978   2.1145 0002694  17.9989 342.0954 14.37492885376802
ORBCOMM FM14            
1 25419U 98046G   24343.46016717  .00003210  00000+0  11025-2 0  9992
2 25419  44.9966   1.2172 0002411 350.4685   9.6117 14.37777576376759
ORBCOMM FM13            
1 25420U 98046H   24343.49152361  .00002815  00000+0  99295-3 0  9999
2 25420  44.9984   7.3389 0004137   9.3324 350.7599 14.36757791375800
ORBCOMM FM21            
1 25475U 98053A   24343.60082380  .00002566  00000+0  91285-3 0  9997
2 25475  45.0078  91.5433 0001578 257.1361 102.9311 14.36555033369831
ORBCOMM FM22            
1 25476U 98053B   24343.83132932  .00003570  00000+0  12311-2 0  9990
2 25476  45.0071  86.6844 0002705 299.4620  60.5958 14.37362543370231
ORBCOMM FM23            
1 25477U 98053C   24343.62067582  .00003185  00000+0  11195-2 0  9997
2 25477  45.0075  93.7841 0002063 284.3787  75.6832 14.36654967369987
